NORAD_CAT_ID,OBJECT_NAME,OBJECT_TYPE,EPOCH,MEAN_MOTION,ECCENTRICITY,INCLINATION,RA_OF_ASC_NODE,ARG_OF_PERICENTER,MEAN_ANOMALY,BSTAR,MEAN_MOTION_DOT,MEAN_MOTION_DDOT,TLE_LINE0,TLE_LINE1,TLE_LINE2,SEMIMAJOR_AXIS,PERIOD,APOGEE,PERIGEE,DECAYED
49458.0,STARLINK-3156,PAYLOAD,2022-02-18 14:00:01,15.09528922,0.0001761999999999,53.2173,23.5696,43.2973,242.7537,-0.044001,-0.00667797,0.0,0 STARLINK-3156,1 49458U 21104BC  22049.58334491 -.00667797  00000-0 -44001-1 0  9996,2 49458  53.2173  23.5696 0001762  43.2973 242.7537 15.09528922  3633,6915.775,95.394,538.859,536.422,0.0
49458.0,STARLINK-3156,PAYLOAD,2022-02-18 20:00:01,15.09063872,0.0002016,53.2172,22.446,35.6817,169.5456,-0.02089,-0.00320235,0.0,0 STARLINK-3156,1 49458U 21104BC  22049.83334491 -.00320235  00000-0 -20890-1 0  9997,2 49458  53.2172  22.4460 0002016  35.6817 169.5456 15.09063872 16452,6917.196,95.423,540.456,537.6669999999998,0.0
49458.0,STARLINK-3156,PAYLOAD,2022-02-18 22:00:00,15.08924112,0.0002018,53.2174,22.0719,38.6888,259.5199,-0.0084616,-0.00132792,0.0,0 STARLINK-3156,1 49458U 21104BC  22049.91667824 -.00132792  00000-0 -84616-2 0  9991,2 49458  53.2174  22.0719 0002018  38.6888 259.5199 15.08924112  3621,6917.623000000001,95.432,540.884,538.092,0.0
49458.0,STARLINK-3156,PAYLOAD,2022-02-19 04:00:00,15.0883634,0.0002183,53.2173,20.9513,33.0006,183.9464,4.266e-05,3.91e-06,0.0,0 STARLINK-3156,1 49458U 21104BC  22050.16667824  .00000391  00000-0  42660-4 0  9992,2 49458  53.2173  20.9513 0002183  33.0006 183.9464 15.08836340 16504,6917.892,95.438,541.2669999999998,538.246,0.0
49458.0,STARLINK-3156,PAYLOAD,2022-02-19 12:00:02,15.08867132,0.0001527,53.2163,19.4438,21.2306,207.4418,-0.0015044,-0.00024168,0.0,0 STARLINK-3156,1 49458U 21104BC  22050.50002315 -.00024168  00000-0 -15044-2 0  9992,2 49458  53.2163  19.4438 0001527  21.2306 207.4418 15.08867132 16554,6917.797,95.436,540.719,538.606,0.0
49458.0,STARLINK-3156,PAYLOAD,2022-02-19 14:00:01,15.08884228,0.0001504,53.2167,19.0742,20.9434,300.5716,-0.0035121,-0.00055817,0.0,0 STARLINK-3156,1 49458U 21104BC  22050.58334491 -.00055817  00000-0 -35121-2 0  9996,2 49458  53.2167  19.0742 0001504  20.9434 300.5716 15.08884228  3596,6917.745,95.435,540.651,538.57,0.0
49458.0,STARLINK-3156,PAYLOAD,2022-02-19 22:00:00,15.08865046,0.0001371,53.2169,17.572,31.479,301.6697,-0.00084668,-0.00013747,0.0,0 STARLINK-3156,1 49458U 21104BC  22050.91667824 -.00013747  00000-0 -84668-3 0  9999,2 49458  53.2169  17.5720 0001371  31.4790 301.6697 15.08865046  3598,6917.804,95.436,540.617,538.72,0.0
49458.0,STARLINK-3156,PAYLOAD,2022-02-20 04:00:00,15.08850758,0.0001598,53.2167,16.4512,29.4683,222.3986,-0.00049279,-8.125e-05,0.0,0 STARLINK-3156,1 49458U 21104BC  22051.16667824 -.00008125  00000-0 -49279-3 0  9990,2 49458  53.2167  16.4512 0001598  29.4683 222.3986 15.08850758 16657,6917.848000000001,95.437,540.818,538.607,0.0
49458.0,STARLINK-3156,PAYLOAD,2022-02-20 14:00:01,15.08841589,0.0001617,53.2169,14.5822,32.6661,323.6985,-0.0020907,-0.00033409,0.0,0 STARLINK-3156,1 49458U 21104BC  22051.58334491 -.00033409  00000-0 -20907-2 0  9996,2 49458  53.2169  14.5822 0001617  32.6661 323.6985 15.08841589  3591,6917.876,95.437,540.859,538.622,0.0
49458.0,STARLINK-3156,PAYLOAD,2022-02-20 20:00:01,15.08830895,0.0001501,53.2172,13.4615,36.0696,238.9824,-0.0012154,-0.00019574,0.0,0 STARLINK-3156,1 49458U 21104BC  22051.83334491 -.00019574  00000-0 -12154-2 0  9996,2 49458  53.2172  13.4615 0001501  36.0696 238.9824 15.08830895 16751,6917.908,95.438,540.812,538.735,0.0
49458.0,STARLINK-3156,PAYLOAD,2022-02-20 22:00:00,15.08825161,0.0001455,53.217,13.0832,39.4454,328.5013,0.00076631,0.00011924,0.0,0 STARLINK-3156,1 49458U 21104BC  22051.91667824  .00011924  00000-0  76631-3 0  9994,2 49458  53.2170  13.0832 0001455  39.4454 328.5013 15.08825161  3597,6917.926,95.438,540.797,538.784,0.0
49458.0,STARLINK-3156,PAYLOAD,2022-02-21 12:00:00,15.08849912,0.0001624,53.2163,10.4656,34.6018,263.6089,-0.0018363,-0.00029402,0.0,0 STARLINK-3156,1 49458U 21104BC  22052.50001157 -.00029402  00000-0 -18363-2 0  9990,2 49458  53.2163  10.4656 0001624  34.6018 263.6089 15.08849912 16850,6917.85,95.437,540.839,538.592,0.0
49458.0,STARLINK-3156,PAYLOAD,2022-02-21 22:00:00,15.08848003,0.0001496999999999,53.2166,8.5945,41.7368,0.9632,0.00029379,4.392e-05,0.0,0 STARLINK-3156,1 49458U 21104BC  22052.91667824  .00004392  00000-0  29379-3 0  9993,2 49458  53.2166   8.5945 0001497  41.7368   0.9632 15.08848003  3590,6917.856,95.437,540.757,538.685,0.0
49458.0,STARLINK-3156,PAYLOAD,2022-02-22 04:00:00,15.08845472,0.0001699,53.2163,7.4735,38.0703,283.3363,-0.00010404,-1.944e-05,0.0,0 STARLINK-3156,1 49458U 21104BC  22053.16667824 -.00001944  00000-0 -10404-3 0  9992,2 49458  53.2163   7.4735 0001699  38.0703 283.3363 15.08845472 16957,6917.864000000001,95.437,540.904,538.553,0.0
49458.0,STARLINK-3156,PAYLOAD,2022-02-22 14:00:01,15.08871096,0.0001636,53.2159,5.6019,41.374,24.5372,-0.0037096,-0.00058894,0.0,0 STARLINK-3156,1 49458U 21104BC  22053.58334491 -.00058894  00000-0 -37096-2 0  9990,2 49458  53.2159   5.6019 0001636  41.3740  24.5372 15.08871096  3600,6917.785,95.436,540.7819999999998,538.519,0.0
49458.0,STARLINK-3156,PAYLOAD,2022-02-22 22:00:00,15.08844959,0.0001657,53.2159,4.1053,47.7162,29.804,-5.7e-05,-1.195e-05,0.0,0 STARLINK-3156,1 49458U 21104BC  22053.91667824 -.00001195  00000-0 -57000-4 0  9997,2 49458  53.2159   4.1053 0001657  47.7162  29.8040 15.08844959  3612,6917.865,95.437,540.877,538.5840000000002,0.0
49458.0,STARLINK-3156,PAYLOAD,2022-02-23 12:00:00,15.08876192,0.0001769,53.2153,1.4872,41.6959,326.1176,-0.0043794,-0.00069385,0.0,0 STARLINK-3156,1 49458U 21104BC  22054.50001157 -.00069385  00000-0 -43794-2 0  9992,2 49458  53.2153   1.4872 0001769  41.6959 326.1176 15.08876192 17157,6917.77,95.435,540.859,538.411,0.0
49458.0,STARLINK-3156,PAYLOAD,2022-02-23 14:00:01,15.08859488,0.0001693,53.2155,1.1126,43.9238,56.7979,-0.0030628,-0.00048729,0.0,0 STARLINK-3156,1 49458U 21104BC  22054.58334491 -.00048729  00000-0 -30628-2 0  9991,2 49458  53.2155   1.1126 0001693  43.9238  56.7979 15.08859488  3622,6917.821,95.436,540.857,538.515,0.0
49458.0,STARLINK-3156,PAYLOAD,2022-02-23 20:00:01,15.08851844,0.0001705,53.2154,359.9898,48.344,331.0757,3.43e-05,2.58e-06,0.0,0 STARLINK-3156,1 49458U 21104BC  22054.83334491  .00000258  00000-0  34300-4 0  9995,2 49458  53.2154 359.9898 0001705  48.3440 331.0757 15.08851844 17209,6917.844,95.437,540.889,538.53,0.0
49458.0,STARLINK-3156,PAYLOAD,2022-02-23 22:00:00,15.08874416,0.0001740999999999,53.2155,359.616,47.7988,64.5172,-0.0033443,-0.0005317,0.0,0 STARLINK-3156,1 49458U 21104BC  22054.91667824 -.00053170  00000-0 -33443-2 0  9991,2 49458  53.2155 359.6160 0001741  47.7988  64.5172 15.08874416  3618,6917.775,95.435,540.845,538.436,0.0
49458.0,STARLINK-3156,PAYLOAD,2022-02-24 14:00:01,15.08842264,0.0001761999999999,53.2154,356.62300000000016,44.4482,91.086,0.00016356,2.316e-05,0.0,0 STARLINK-3156,1 49458U 21104BC  22055.58334491  .00002316  00000-0  16356-3 0  9995,2 49458  53.2154 356.6230 0001762  44.4482  91.0860 15.08842264  3602,6917.873000000001,95.437,540.957,538.52,0.0
49458.0,STARLINK-3156,PAYLOAD,2022-02-24 22:00:00,15.08866475,0.0001867,53.2155,355.1265,48.9653,98.1628,-0.0033671,-0.00053517,0.0,0 STARLINK-3156,1 49458U 21104BC  22055.91667824 -.00053517  00000-0 -33671-2 0  9990,2 49458  53.2155 355.1265 0001867  48.9653  98.1628 15.08866475 17379,6917.799,95.436,540.956,538.373,0.0
49458.0,STARLINK-3156,PAYLOAD,2022-02-25 12:00:00,15.08854659,0.000197,53.2156,352.5079,45.4049,32.0038,-0.0044416,-0.00070317,0.0,0 STARLINK-3156,1 49458U 21104BC  22056.50001157 -.00070317  00000-0 -44416-2 0  9993,2 49458  53.2156 352.5079 0001970  45.4049  32.0038 15.08854659 17463,6917.8359999999975,95.437,541.063,538.3380000000002,0.0
49458.0,STARLINK-3156,PAYLOAD,2022-02-25 14:00:01,15.08825238,0.0001888,53.2157,352.1334,46.3822,123.9323,-0.0014279,-0.00022932,0.0,0 STARLINK-3156,1 49458U 21104BC  22056.58334491 -.00022932  00000-0 -14279-2 0  9995,2 49458  53.2157 352.1334 0001888  46.3822 123.9323 15.08825238  3600,6917.926,95.438,541.097,538.484,0.0
49458.0,STARLINK-3156,PAYLOAD,2022-02-25 20:00:01,15.08813233,0.0001902,53.2159,351.0108,49.3035,39.6861,0.0010825,0.00016969,0.0,0 STARLINK-3156,1 49458U 21104BC  22056.83334491  .00016969  00000-0  10825-2 0  9997,2 49458  53.2159 351.0108 0001902  49.3035  39.6861 15.08813233 17512,6917.962,95.439,541.143,538.511,0.0
49458.0,STARLINK-3156,PAYLOAD,2022-02-25 22:00:00,15.08829182,0.0001944,53.216,350.6372,48.2171,133.6609,-0.00090498,-0.00014658,0.0,0 STARLINK-3156,1 49458U 21104BC  22056.91667824 -.00014658  00000-0 -90498-3 0  9995,2 49458  53.2160 350.6372 0001944  48.2171 133.6609 15.08829182  3584,6917.913000000001,95.438,541.123,538.434,0.0
49458.0,STARLINK-3156,PAYLOAD,2022-02-26 14:00:01,15.08818983,0.0001964,53.2162,347.6441,47.2987,157.7324,0.0012151,0.00019092,0.0,0 STARLINK-3156,1 49458U 21104BC  22057.58334491  .00019092  00000-0  12151-2 0  9994,2 49458  53.2162 347.6441 0001964  47.2987 157.7324 15.08818983  3617,6917.945,95.439,541.168,538.451,0.0
49458.0,STARLINK-3156,PAYLOAD,2022-02-26 20:00:01,15.0883233,0.0002017,53.2166,346.5229,50.5705,73.1958,0.00022244,3.253e-05,0.0,0 STARLINK-3156,1 49458U 21104BC  22057.83335648  .00003253  00000-0  22244-3 0  9994,2 49458  53.2166 346.5229 0002017  50.5705  73.1958 15.08832330 17664,6917.904,95.438,541.164,538.373,0.0
49458.0,STARLINK-3156,PAYLOAD,2022-02-26 22:00:00,15.08843515,0.000205,53.2168,346.1504,49.4058,167.1909,-0.0014422,-0.0002317,0.0,0 STARLINK-3156,1 49458U 21104BC  22057.91667824 -.00023170  00000-0 -14422-2 0  9997,2 49458  53.2168 346.1504 0002050  49.4058 167.1909 15.08843515  3610,6917.87,95.437,541.153,538.316,0.0
